STARLINK-11610 [DTC]    
1 63135U 25043D   25212.51182940  .00433399  00000+0  31652-2 0  9993
2 63135  43.0017 144.1712 0007811 266.3027  93.6948 15.71140782 24560
STARLINK-11613 [DTC]    
1 63136U 25043E   25212.51714368  .00237019  00000+0  17909-2 0  9999
2 63136  43.0001 144.2132 0005596 258.4531 101.5708 15.70927761 24686
STARLINK-11616 [DTC]    
1 63137U 25043F   25212.08878659  .00228948  00000+0  17247-2 0  9992
2 63137  42.9983 146.1325 0001007 177.5900 182.4972 15.71037226 24627
STARLINK-11611 [DTC]    
1 63138U 25043G   25212.16738197  .00253628  00000+0  19101-2 0  9998
2 63138  43.0003 145.8707 0003640 271.0776  88.9674 15.70964503 24635
STARLINK-11628 [DTC]    
1 63139U 25043H   25212.17269299  .00197108  00000+0  14975-2 0  9996
2 63139  43.0002 145.9125 0003166 271.8833  88.1672 15.70931916 24637
STARLINK-11607 [DTC]    
1 63140U 25043J   25212.22035203  .00163807  00000+0  12532-2 0  9996
2 63140  42.9997 145.4016 0001545 271.1905  88.8785 15.70875722 24641
STARLINK-11522 [DTC]    
1 63141U 25043K   25212.09849391  .00193461  00000+0  14663-2 0  9999
2 63141  42.9981 146.2097 0001187 225.3953 134.6818 15.71002936 24444
STARLINK-11503 [DTC]    
1 63142U 25043L   25212.52765768  .00217797  00000+0  16531-2 0  9998
2 63142  42.9994 143.3981 0000825   4.7148 355.3727 15.70892334 24519
STARLINK-11579 [DTC]    
1 63143U 25043M   25212.53296500  .00324087  00000+0  24225-2 0  9993
2 63143  42.9997 143.4408 0000368  26.7749 333.3137 15.70931515 24573
STARLINK-11581 [DTC]    
1 63144U 25043N   25212.17800467  .00240757  00000+0  18228-2 0  9994
2 63144  43.0022 145.9542 0002438 276.0843  83.9747 15.70880394 24636
STARLINK-32949          
1 63145U 25043P   25211.66682801  .00028057  00000+0  10252-2 0  9994
2 63145  42.9939 190.3713 0000994  41.3803 318.7124 15.27580018 23976
STARLINK-32952          
1 63146U 25043Q   25212.22605815  .00018868  00000+0  69325-3 0  9993
2 63146  43.0008 193.7377 0001772 281.7333  78.3319 15.27586763 24049
STARLINK-32936          
1 63147U 25043R   25212.35940237  .00029102  00000+0  10623-2 0  9997
2 63147  43.0011 193.0372 0001758 277.8567  82.2085 15.27597897 24067
STARLINK-32937          
1 63148U 25043S   25212.22959686  .00025213  00000+0  92240-3 0  9997
2 63148  42.9992 186.8547 0001056 272.8851  87.1880 15.27587051 24068
STARLINK-32939          
1 63149U 25043T   25212.28470266  .00027153  00000+0  99231-3 0  9998
2 63149  43.0024 186.4111 0001462 256.4885 103.5803 15.27590186 24135
STARLINK-32919          
1 63150U 25043U   25212.23345159  .00018264  00000+0  67151-3 0  9996
2 63150  42.9982 186.8831 0001102 271.2105  88.8621 15.27583163 24176
