[{"OBJECT_NAME":"STARLINK-11610 [DTC]","OBJECT_ID":"2025-043D","EPOCH":"2025-07-31T12:17:02.060160","MEAN_MOTION":15.71140782,"ECCENTRICITY":0.0007811,"INCLINATION":43.0017,"RA_OF_ASC_NODE":144.1712,"ARG_OF_PERICENTER":266.3027,"MEAN_ANOMALY":93.6948,"EPHEMERIS_TYPE":0,"CLASSIFICATION_TYPE":"U","NORAD_CAT_ID":63135,"ELEMENT_SET_NO":999,"REV_AT_EPOCH":2456,"BSTAR":0.0031652,"MEAN_MOTION_DOT":0.00433399,"MEAN_MOTION_DDOT":0},{"OBJECT_NAME":"STARLINK-11613 [DTC]","OBJECT_ID":"2025-043E","EPOCH":"2025-07-31T12:24:41.213952","MEAN_MOTION":15.70927761,"ECCENTRICITY":0.0005596,"INCLINATION":43.0001,"RA_OF_ASC_NODE":144.2132,"ARG_OF_PERICENTER":258.4531,"MEAN_ANOMALY":101.5708,"EPHEMERIS_TYPE":0,"CLASSIFICATION_TYPE":"U","NORAD_CAT_ID":63136,"ELEMENT_SET_NO":999,"REV_AT_EPOCH":2468,"BSTAR":0.0017909,"MEAN_MOTION_DOT":0.00237019,"MEAN_MOTION_DDOT":0},{"OBJECT_NAME":"STARLINK-11616 [DTC]","OBJECT_ID":"2025-043F","EPOCH":"2025-07-31T02:07:51.161376","MEAN_MOTION":15.71037226,"ECCENTRICITY":0.0001007,"INCLINATION":42.9983,"RA_OF_ASC_NODE":146.1325,"ARG_OF_PERICENTER":177.59,"MEAN_ANOMALY":182.4972,"EPHEMERIS_TYPE":0,"CLASSIFICATION_TYPE":"U","NORAD_CAT_ID":63137,"ELEMENT_SET_NO":999,"REV_AT_EPOCH":2462,"BSTAR":0.0017247,"MEAN_MOTION_DOT":0.00228948,"MEAN_MOTION_DDOT":0},{"OBJECT_NAME":"STARLINK-11611 [DTC]","OBJECT_ID":"2025-043G","EPOCH":"2025-07-31T04:01:01.802208","MEAN_MOTION":15.70964503,"ECCENTRICITY":0.000364,"INCLINATION":43.0003,"RA_OF_ASC_NODE":145.8707,"ARG_OF_PERICENTER":271.0776,"MEAN_ANOMALY":88.9674,"EPHEMERIS_TYPE":0,"CLASSIFICATION_TYPE":"U","NORAD_CAT_ID":63138,"ELEMENT_SET_NO":999,"REV_AT_EPOCH":2463,"BSTAR":0.0019101,"MEAN_MOTION_DOT":0.00253628,"MEAN_MOTION_DDOT":0},{"OBJECT_NAME":"STARLINK-11628 [DTC]","OBJECT_ID":"2025-043H","EPOCH":"2025-07-31T04:08:40.674336","MEAN_MOTION":15.70931916,"ECCENTRICITY":0.0003166,"INCLINATION":43.0002,"RA_OF_ASC_NODE":145.9125,"ARG_OF_PERICENTER":271.8833,"MEAN_ANOMALY":88.1672,"EPHEMERIS_TYPE":0,"CLASSIFICATION_TYPE":"U","NORAD_CAT_ID":63139,"ELEMENT_SET_NO":999,"REV_AT_EPOCH":2463,"BSTAR":0.0014975,"MEAN_MOTION_DOT":0.00197108,"MEAN_MOTION_DDOT":0},{"OBJECT_NAME":"STARLINK-11607 [DTC]","OBJECT_ID":"2025-043J","EPOCH":"2025-07-31T05:17:18.415392","MEAN_MOTION":15.70875722,"ECCENTRICITY":0.0001545,"INCLINATION":42.9997,"RA_OF_ASC_NODE":145.4016,"ARG_OF_PERICENTER":271.1905,"MEAN_ANOMALY":88.8785,"EPHEMERIS_TYPE":0,"CLASSIFICATION_TYPE":"U","NORAD_CAT_ID":63140,"ELEMENT_SET_NO":999,"REV_AT_EPOCH":2464,"BSTAR":0.0012532,"MEAN_MOTION_DOT":0.00163807,"MEAN_MOTION_DDOT":0},{"OBJECT_NAME":"STARLINK-11522 [DTC]","OBJECT_ID":"2025-043K","EPOCH":"2025-07-31T02:21:49.873824","MEAN_MOTION":15.71002936,"ECCENTRICITY":0.0001187,"INCLINATION":42.9981,"RA_OF_ASC_NODE":146.2097,"ARG_OF_PERICENTER":225.3953,"MEAN_ANOMALY":134.6818,"EPHEMERIS_TYPE":0,"CLASSIFICATION_TYPE":"U","NORAD_CAT_ID":63141,"ELEMENT_SET_NO":999,"REV_AT_EPOCH":2444,"BSTAR":0.0014663,"MEAN_MOTION_DOT":0.00193461,"MEAN_MOTION_DDOT":0},{"OBJECT_NAME":"STARLINK-11503 [DTC]","OBJECT_ID":"2025-043L","EPOCH":"2025-07-31T12:39:49.623552","MEAN_MOTION":15.70892334,"ECCENTRICITY":8.25e-5,"INCLINATION":42.9994,"RA_OF_ASC_NODE":143.3981,"ARG_OF_PERICENTER":4.7148,"MEAN_ANOMALY":355.3727,"EPHEMERIS_TYPE":0,"CLASSIFICATION_TYPE":"U","NORAD_CAT_ID":63142,"ELEMENT_SET_NO":999,"REV_AT_EPOCH":2451,"BSTAR":0.0016531,"MEAN_MOTION_DOT":0.00217797,"MEAN_MOTION_DDOT":0},{"OBJECT_NAME":"STARLINK-11579 [DTC]","OBJECT_ID":"2025-043M","EPOCH":"2025-07-31T12:47:28.176000","MEAN_MOTION":15.70931515,"ECCENTRICITY":3.68e-5,"INCLINATION":42.9997,"RA_OF_ASC_NODE":143.4408,"ARG_OF_PERICENTER":26.7749,"MEAN_ANOMALY":333.3137,"EPHEMERIS_TYPE":0,"CLASSIFICATION_TYPE":"U","NORAD_CAT_ID":63143,"ELEMENT_SET_NO":999,"REV_AT_EPOCH":2457,"BSTAR":0.0024225,"MEAN_MOTION_DOT":0.00324087,"MEAN_MOTION_DDOT":0},{"OBJECT_NAME":"STARLINK-11581 [DTC]","OBJECT_ID":"2025-043N","EPOCH":"2025-07-31T04:16:19.603488","MEAN_MOTION":15.70880394,"ECCENTRICITY":0.0002438,"INCLINATION":43.0022,"RA_OF_ASC_NODE":145.9542,"ARG_OF_PERICENTER":276.0843,"MEAN_ANOMALY":83.9747,"EPHEMERIS_TYPE":0,"CLASSIFICATION_TYPE":"U","NORAD_CAT_ID":63144,"ELEMENT_SET_NO":999,"REV_AT_EPOCH":2463,"BSTAR":0.0018228,"MEAN_MOTION_DOT":0.00240757,"MEAN_MOTION_DDOT":0},{"OBJECT_NAME":"STARLINK-32949","OBJECT_ID":"2025-043P","EPOCH":"2025-07-30T16:00:13.940064","MEAN_MOTION":15.27580018,"ECCENTRICITY":9.94e-5,"INCLINATION":42.9939,"RA_OF_ASC_NODE":190.3713,"ARG_OF_PERICENTER":41.3803,"MEAN_ANOMALY":318.7124,"EPHEMERIS_TYPE":0,"CLASSIFICATION_TYPE":"U","NORAD_CAT_ID":63145,"ELEMENT_SET_NO":999,"REV_AT_EPOCH":2397,"BSTAR":0.0010252,"MEAN_MOTION_DOT":0.00028057,"MEAN_MOTION_DDOT":0},{"OBJECT_NAME":"STARLINK-32952","OBJECT_ID":"2025-043Q","EPOCH":"2025-07-31T05:25:31.424160","MEAN_MOTION":15.27586763,"ECCENTRICITY":0.0001772,"INCLINATION":43.0008,"RA_OF_ASC_NODE":193.7377,"ARG_OF_PERICENTER":281.7333,"MEAN_ANOMALY":78.3319,"EPHEMERIS_TYPE":0,"CLASSIFICATION_TYPE":"U","NORAD_CAT_ID":63146,"ELEMENT_SET_NO":999,"REV_AT_EPOCH":2404,"BSTAR":0.00069325,"MEAN_MOTION_DOT":0.00018868,"MEAN_MOTION_DDOT":0},{"OBJECT_NAME":"STARLINK-32936","OBJECT_ID":"2025-043R","EPOCH":"2025-07-31T08:37:32.364768","MEAN_MOTION":15.27597897,"ECCENTRICITY":0.0001758,"INCLINATION":43.0011,"RA_OF_ASC_NODE":193.0372,"ARG_OF_PERICENTER":277.8567,"MEAN_ANOMALY":82.2085,"EPHEMERIS_TYPE":0,"CLASSIFICATION_TYPE":"U","NORAD_CAT_ID":63147,"ELEMENT_SET_NO":999,"REV_AT_EPOCH":2406,"BSTAR":0.0010623,"MEAN_MOTION_DOT":0.00029102,"MEAN_MOTION_DDOT":0},{"OBJECT_NAME":"STARLINK-32937","OBJECT_ID":"2025-043S","EPOCH":"2025-07-31T05:30:37.168704","MEAN_MOTION":15.27587051,"ECCENTRICITY":0.0001056,"INCLINATION":42.9992,"RA_OF_ASC_NODE":186.8547,"ARG_OF_PERICENTER":272.8851,"MEAN_ANOMALY":87.188,"EPHEMERIS_TYPE":0,"CLASSIFICATION_TYPE":"U","NORAD_CAT_ID":63148,"ELEMENT_SET_NO":999,"REV_AT_EPOCH":2406,"BSTAR":0.0009224,"MEAN_MOTION_DOT":0.00025213,"MEAN_MOTION_DDOT":0},{"OBJECT_NAME":"STARLINK-32939","OBJECT_ID":"2025-043T","EPOCH":"2025-07-31T06:49:58.309824","MEAN_MOTION":15.27590186,"ECCENTRICITY":0.0001462,"INCLINATION":43.0024,"RA_OF_ASC_NODE":186.4111,"ARG_OF_PERICENTER":256.4885,"MEAN_ANOMALY":103.5803,"EPHEMERIS_TYPE":0,"CLASSIFICATION_TYPE":"U","NORAD_CAT_ID":63149,"ELEMENT_SET_NO":999,"REV_AT_EPOCH":2413,"BSTAR":0.00099231,"MEAN_MOTION_DOT":0.00027153,"MEAN_MOTION_DDOT":0},{"OBJECT_NAME":"STARLINK-32919","OBJECT_ID":"2025-043U","EPOCH":"2025-07-31T05:36:10.217376","MEAN_MOTION":15.27583163,"ECCENTRICITY":0.0001102,"INCLINATION":42.9982,"RA_OF_ASC_NODE":186.8831,"ARG_OF_PERICENTER":271.2105,"MEAN_ANOMALY":88.8621,"EPHEMERIS_TYPE":0,"CLASSIFICATION_TYPE":"U","NORAD_CAT_ID":63150,"ELEMENT_SET_NO":999,"REV_AT_EPOCH":2417,"BSTAR":0.00067151,"MEAN_MOTION_DOT":0.00018264,"MEAN_MOTION_DDOT":0}]
